STARLINK-3459           
1 51757U 22016AV  25242.88995794 -.00000800  00000+0 -32186-4 0  9993
2 51757  53.2164  85.6635 0001291  92.1082 268.0058 15.08842535194909
STARLINK-3458           
1 51758U 22016AW  25242.88165062  .00001432  00000+0  10805-3 0  9994
2 51758  53.2178  85.6442 0001414  81.5669 278.5484 15.08833071196042
STARLINK-3456           
1 51759U 22016AX  25242.88532448  .00000618  00000+0  56940-4 0  9997
2 51759  53.2176  85.6741 0001323  88.5623 271.5521 15.08836822194904
STARLINK-3622           
1 51768U 22017A   25242.91568276  .00000357  00000+0  40489-4 0  9991
2 51768  53.2168 115.5395 0001380  90.5993 269.5158 15.08841779195247
STARLINK-3621           
1 51769U 22017B   25242.90832732 -.00000994  00000+0 -44389-4 0  9994
2 51769  53.2169 115.5725 0001357 112.6818 247.4318 15.08839826193805
STARLINK-3612           
1 51770U 22017C   25242.91200006  .00002848  00000+0  19693-3 0  9997
2 51770  53.2166 115.5567 0001208  90.3217 269.7913 15.08840226193813
STARLINK-3614           
1 51771U 22017D   25242.90464116  .00001978  00000+0  14233-3 0  9999
2 51771  53.2164 115.5797 0001271  87.0756 273.0382 15.08843946193807
STARLINK-3623           
1 51772U 22017E   25242.89728807 -.00001469  00000+0 -74207-4 0  9993
2 51772  53.2185 115.6217 0001699  88.0693 272.0494 15.08843089193793
STARLINK-3624           
1 51773U 22017F   25242.90191611  .00001083  00000+0  86137-4 0  9998
2 51773  53.2170 115.5728 0001278  89.8568 270.2571 15.08840564193800
STARLINK-3629           
1 51774U 22017G   25242.88992721  .00000442  00000+0  45860-4 0  9993
2 51774  53.2185 115.6575 0001505  90.3596 269.7568 15.08835341193760
STARLINK-3620           
1 51775U 22017H   25242.90096707  .00002919  00000+0  20140-3 0  9990
2 51775  53.2162 115.6048 0001256  94.2591 265.8545 15.08836192193804
STARLINK-3608           
1 51776U 22017J   25242.95248467  .00002404  00000+0  16908-3 0  9994
2 51776  53.2167 115.3734 0001018  89.7013 270.4096 15.08840695193775
STARLINK-3625           
1 51777U 22017K   25242.89087633  .00000599  00000+0  55697-4 0  9996
2 51777  53.2177 115.6225 0001235  90.4097 269.7036 15.08839938193792
STARLINK-3615           
1 51778U 22017L   25242.89450301  .00000365  00000+0  41038-4 0  9998
2 51778  53.2167 105.5095 0001228  92.0260 268.0873 15.08841981193755
STARLINK-3611           
1 51779U 22017M   25242.95344524 -.00000115  00000+0  10847-4 0  9993
2 51779  53.2189 115.4211 0001565 119.7333 240.3815 15.08837532193770
STARLINK-3617           
1 51780U 22017N   25242.93776311  .00002874  00000+0  19865-3 0  9997
2 51780  53.2161 115.4310 0001457  96.9024 263.2134 15.08826179193622
