[{"OBJECT_NAME":"STARLINK-3459","OBJECT_ID":"2022-016AV","EPOCH":"2025-08-30T21:21:32.366016","MEAN_MOTION":15.08842535,"ECCENTRICITY":0.00012919,"INCLINATION":53.2164,"RA_OF_ASC_NODE":85.6635,"ARG_OF_PERICENTER":92.1082,"MEAN_ANOMALY":268.0058,"EPHEMERIS_TYPE":0,"CLASSIFICATION_TYPE":"U","NORAD_CAT_ID":51757,"ELEMENT_SET_NO":999,"REV_AT_EPOCH":19490,"BSTAR":-3.2185793e-5,"MEAN_MOTION_DOT":-8.0e-6,"MEAN_MOTION_DDOT":0},{"OBJECT_NAME":"STARLINK-3458","OBJECT_ID":"2022-016AW","EPOCH":"2025-08-30T21:09:34.613568","MEAN_MOTION":15.08833071,"ECCENTRICITY":0.00014146,"INCLINATION":53.2178,"RA_OF_ASC_NODE":85.6442,"ARG_OF_PERICENTER":81.5669,"MEAN_ANOMALY":278.5484,"EPHEMERIS_TYPE":0,"CLASSIFICATION_TYPE":"U","NORAD_CAT_ID":51758,"ELEMENT_SET_NO":999,"REV_AT_EPOCH":19604,"BSTAR":0.00010804856,"MEAN_MOTION_DOT":1.432e-5,"MEAN_MOTION_DDOT":0},{"OBJECT_NAME":"STARLINK-3456","OBJECT_ID":"2022-016AX","EPOCH":"2025-08-30T21:14:52.035072","MEAN_MOTION":15.08836822,"ECCENTRICITY":0.00013232,"INCLINATION":53.2176,"RA_OF_ASC_NODE":85.6741,"ARG_OF_PERICENTER":88.5623,"MEAN_ANOMALY":271.5521,"EPHEMERIS_TYPE":0,"CLASSIFICATION_TYPE":"U","NORAD_CAT_ID":51759,"ELEMENT_SET_NO":999,"REV_AT_EPOCH":19490,"BSTAR":5.6940217e-5,"MEAN_MOTION_DOT":6.18e-6,"MEAN_MOTION_DDOT":0},{"OBJECT_NAME":"STARLINK-3622","OBJECT_ID":"2022-017A","EPOCH":"2025-08-30T21:58:34.990464","MEAN_MOTION":15.08841779,"ECCENTRICITY":0.00013809,"INCLINATION":53.2168,"RA_OF_ASC_NODE":115.5395,"ARG_OF_PERICENTER":90.5993,"MEAN_ANOMALY":269.5158,"EPHEMERIS_TYPE":0,"CLASSIFICATION_TYPE":"U","NORAD_CAT_ID":51768,"ELEMENT_SET_NO":999,"REV_AT_EPOCH":19524,"BSTAR":4.0489087e-5,"MEAN_MOTION_DOT":3.57e-6,"MEAN_MOTION_DDOT":0},{"OBJECT_NAME":"STARLINK-3621","OBJECT_ID":"2022-017B","EPOCH":"2025-08-30T21:47:59.480448","MEAN_MOTION":15.08839826,"ECCENTRICITY":0.00013573,"INCLINATION":53.2169,"RA_OF_ASC_NODE":115.5725,"ARG_OF_PERICENTER":112.6818,"MEAN_ANOMALY":247.4318,"EPHEMERIS_TYPE":0,"CLASSIFICATION_TYPE":"U","NORAD_CAT_ID":51769,"ELEMENT_SET_NO":999,"REV_AT_EPOCH":19380,"BSTAR":-4.4389264e-5,"MEAN_MOTION_DOT":-9.94e-6,"MEAN_MOTION_DDOT":0},{"OBJECT_NAME":"STARLINK-3612","OBJECT_ID":"2022-017C","EPOCH":"2025-08-30T21:53:16.805184","MEAN_MOTION":15.08840226,"ECCENTRICITY":0.00012085,"INCLINATION":53.2166,"RA_OF_ASC_NODE":115.5567,"ARG_OF_PERICENTER":90.3217,"MEAN_ANOMALY":269.7913,"EPHEMERIS_TYPE":0,"CLASSIFICATION_TYPE":"U","NORAD_CAT_ID":51770,"ELEMENT_SET_NO":999,"REV_AT_EPOCH":19381,"BSTAR":0.00019692985,"MEAN_MOTION_DOT":2.848e-5,"MEAN_MOTION_DDOT":0},{"OBJECT_NAME":"STARLINK-3614","OBJECT_ID":"2022-017D","EPOCH":"2025-08-30T21:42:40.996224","MEAN_MOTION":15.08843946,"ECCENTRICITY":0.00012719,"INCLINATION":53.2164,"RA_OF_ASC_NODE":115.5797,"ARG_OF_PERICENTER":87.0756,"MEAN_ANOMALY":273.0382,"EPHEMERIS_TYPE":0,"CLASSIFICATION_TYPE":"U","NORAD_CAT_ID":51771,"ELEMENT_SET_NO":999,"REV_AT_EPOCH":19380,"BSTAR":0.00014232785,"MEAN_MOTION_DOT":1.978e-5,"MEAN_MOTION_DDOT":0},{"OBJECT_NAME":"STARLINK-3623","OBJECT_ID":"2022-017E","EPOCH":"2025-08-30T21:32:05.689248","MEAN_MOTION":15.08843089,"ECCENTRICITY":0.00016993,"INCLINATION":53.2185,"RA_OF_ASC_NODE":115.6217,"ARG_OF_PERICENTER":88.0693,"MEAN_ANOMALY":272.0494,"EPHEMERIS_TYPE":0,"CLASSIFICATION_TYPE":"U","NORAD_CAT_ID":51772,"ELEMENT_SET_NO":999,"REV_AT_EPOCH":19379,"BSTAR":-7.4206789e-5,"MEAN_MOTION_DOT":-1.469e-5,"MEAN_MOTION_DDOT":0},{"OBJECT_NAME":"STARLINK-3624","OBJECT_ID":"2022-017F","EPOCH":"2025-08-30T21:38:45.551904","MEAN_MOTION":15.08840564,"ECCENTRICITY":0.00012781,"INCLINATION":53.217,"RA_OF_ASC_NODE":115.5728,"ARG_OF_PERICENTER":89.8568,"MEAN_ANOMALY":270.2571,"EPHEMERIS_TYPE":0,"CLASSIFICATION_TYPE":"U","NORAD_CAT_ID":51773,"ELEMENT_SET_NO":999,"REV_AT_EPOCH":19380,"BSTAR":8.6136902e-5,"MEAN_MOTION_DOT":1.083e-5,"MEAN_MOTION_DDOT":0},{"OBJECT_NAME":"STARLINK-3629","OBJECT_ID":"2022-017G","EPOCH":"2025-08-30T21:21:29.710944","MEAN_MOTION":15.08835341,"ECCENTRICITY":0.00015056,"INCLINATION":53.2185,"RA_OF_ASC_NODE":115.6575,"ARG_OF_PERICENTER":90.3596,"MEAN_ANOMALY":269.7568,"EPHEMERIS_TYPE":0,"CLASSIFICATION_TYPE":"U","NORAD_CAT_ID":51774,"ELEMENT_SET_NO":999,"REV_AT_EPOCH":19376,"BSTAR":4.5860487e-5,"MEAN_MOTION_DOT":4.42e-6,"MEAN_MOTION_DDOT":0},{"OBJECT_NAME":"STARLINK-3620","OBJECT_ID":"2022-017H","EPOCH":"2025-08-30T21:37:23.554848","MEAN_MOTION":15.08836192,"ECCENTRICITY":0.00012565,"INCLINATION":53.2162,"RA_OF_ASC_NODE":115.6048,"ARG_OF_PERICENTER":94.2591,"MEAN_ANOMALY":265.8545,"EPHEMERIS_TYPE":0,"CLASSIFICATION_TYPE":"U","NORAD_CAT_ID":51775,"ELEMENT_SET_NO":999,"REV_AT_EPOCH":19380,"BSTAR":0.00020139881,"MEAN_MOTION_DOT":2.919e-5,"MEAN_MOTION_DDOT":0},{"OBJECT_NAME":"STARLINK-3608","OBJECT_ID":"2022-017J","EPOCH":"2025-08-30T22:51:34.675488","MEAN_MOTION":15.08840695,"ECCENTRICITY":0.00010182,"INCLINATION":53.2167,"RA_OF_ASC_NODE":115.3734,"ARG_OF_PERICENTER":89.7013,"MEAN_ANOMALY":270.4096,"EPHEMERIS_TYPE":0,"CLASSIFICATION_TYPE":"U","NORAD_CAT_ID":51776,"ELEMENT_SET_NO":999,"REV_AT_EPOCH":19377,"BSTAR":0.00016907897,"MEAN_MOTION_DOT":2.404e-5,"MEAN_MOTION_DDOT":0},{"OBJECT_NAME":"STARLINK-3625","OBJECT_ID":"2022-017K","EPOCH":"2025-08-30T21:22:51.714912","MEAN_MOTION":15.08839938,"ECCENTRICITY":0.00012354,"INCLINATION":53.2177,"RA_OF_ASC_NODE":115.6225,"ARG_OF_PERICENTER":90.4097,"MEAN_ANOMALY":269.7036,"EPHEMERIS_TYPE":0,"CLASSIFICATION_TYPE":"U","NORAD_CAT_ID":51777,"ELEMENT_SET_NO":999,"REV_AT_EPOCH":19379,"BSTAR":5.5696941e-5,"MEAN_MOTION_DOT":5.99e-6,"MEAN_MOTION_DDOT":0},{"OBJECT_NAME":"STARLINK-3615","OBJECT_ID":"2022-017L","EPOCH":"2025-08-30T21:28:05.060064","MEAN_MOTION":15.08841981,"ECCENTRICITY":0.00012289,"INCLINATION":53.2167,"RA_OF_ASC_NODE":105.5095,"ARG_OF_PERICENTER":92.026,"MEAN_ANOMALY":268.0873,"EPHEMERIS_TYPE":0,"CLASSIFICATION_TYPE":"U","NORAD_CAT_ID":51778,"ELEMENT_SET_NO":999,"REV_AT_EPOCH":19375,"BSTAR":4.1038347e-5,"MEAN_MOTION_DOT":3.65e-6,"MEAN_MOTION_DDOT":0},{"OBJECT_NAME":"STARLINK-3611","OBJECT_ID":"2022-017M","EPOCH":"2025-08-30T22:52:57.668736","MEAN_MOTION":15.08837532,"ECCENTRICITY":0.00015657,"INCLINATION":53.2189,"RA_OF_ASC_NODE":115.4211,"ARG_OF_PERICENTER":119.7333,"MEAN_ANOMALY":240.3815,"EPHEMERIS_TYPE":0,"CLASSIFICATION_TYPE":"U","NORAD_CAT_ID":51779,"ELEMENT_SET_NO":999,"REV_AT_EPOCH":19377,"BSTAR":1.0846793e-5,"MEAN_MOTION_DOT":-1.15e-6,"MEAN_MOTION_DDOT":0},{"OBJECT_NAME":"STARLINK-3617","OBJECT_ID":"2022-017N","EPOCH":"2025-08-30T22:30:22.732704","MEAN_MOTION":15.08826179,"ECCENTRICITY":0.0001457,"INCLINATION":53.2161,"RA_OF_ASC_NODE":115.431,"ARG_OF_PERICENTER":96.9024,"MEAN_ANOMALY":263.2134,"EPHEMERIS_TYPE":0,"CLASSIFICATION_TYPE":"U","NORAD_CAT_ID":51780,"ELEMENT_SET_NO":999,"REV_AT_EPOCH":19362,"BSTAR":0.00019865414,"MEAN_MOTION_DOT":2.874e-5,"MEAN_MOTION_DDOT":0}]
